0 STARLINK-5805
1 56912U 23083AN  24337.50148619  .00001221  00000-0  10541-3 0  9992
2 56912  43.0029  60.3124 0001094 262.3460  97.7258 15.02535625 82299
0 STARLINK-6116
1 56911U 23083AM  24336.51986972  .00003849  00000-0  29993-3 0  9992
2 56911  43.0068  65.8559 0002504 282.3053  77.7509 15.02529283 82144
0 STARLINK-6179
1 56910U 23083AL  24337.30539048  .00004711  00000-0  36375-3 0  9998
2 56910  43.0047  61.4280 0001100 261.4041  98.6677 15.02517621 82263
0 STARLINK-5999
1 56909U 23083AK  24337.92366605  .00001192  00000-0  10329-3 0  9992
2 56909  43.0053  58.3283 0001010 262.6374  97.4354 15.02535969 82464
0 STARLINK-6186
1 56908U 23083AJ  24337.71091775  .00000184  00000-0  28691-4 0  9993
2 56908  43.0050  59.3098 0000931 257.8009 102.2729 15.02531076 82328
0 STARLINK-6110
1 56907U 23083AH  24337.92033654 -.00000291  00000-0 -64640-5 0  9993
2 56907  43.0054  58.3051 0001200 263.5472  96.5234 15.02538573 82467
0 STARLINK-6098
1 56906U 23083AG  24337.51816396 -.00003294  00000-0 -22896-3 0  9990
2 56906  43.0020  60.4403 0002444 281.0541  79.0027 15.02512959 82294
0 STARLINK-6183
1 56905U 23083AF  24336.53428709  .00004813  00000-0  37137-3 0  9997
2 56905  43.0056  65.9651 0000941 275.1115  84.9620 15.02509563 82143
0 STARLINK-6193
1 56904U 23083AE  24337.30427548 -.00001753  00000-0 -11470-3 0  9996
2 56904  42.9985  61.4140 0001328 279.5004  80.5688 15.02545503 82263
0 STARLINK-6192
1 56903U 23083AD  24336.59706368  .00000672  00000-0  64834-4 0  9995
2 56903  43.0042  77.7048 0000921 258.5714 101.5024 15.02533235 82120
0 STARLINK-6195
1 56902U 23083AC  24337.92588632  .00000906  00000-0  82148-4 0  9992
2 56902  43.0047  58.3484 0001130 278.5998  81.4716 15.02533259 82469
0 STARLINK-6185
1 56901U 23083AB  24337.98976662  .00000270  00000-0  35064-4 0  9990
2 56901  43.0041  70.0977 0000929 249.0832 110.9911 15.02536367 81428
0 STARLINK-6207
1 56900U 23083AA  24337.53034285  .00002016  00000-0  16426-3 0  9996
2 56900  43.0014  60.5364 0001157 270.1325  89.9384 15.02533433 82260
0 STARLINK-6203
1 56899U 23083Z   24336.33335576  .00001050  00000-0  92808-4 0  9993
2 56899  43.0004  79.1699 0001814 267.7606  92.3028 15.02540719 81174
0 STARLINK-6205
1 56898U 23083Y   24337.99198500  .00000977  00000-0  87364-4 0  9997
2 56898  43.0026  70.1144 0000909 270.8540  89.2198 15.02534772 81422
0 STARLINK-6200
1 56897U 23083X   24336.34003178  .00002210  00000-0  17868-3 0  9993
2 56897  43.0004  79.2221 0000807 281.6260  78.4492 15.02521820 81178
0 STARLINK-6202
1 56896U 23083W   24337.00147387  .00001129  00000-0  98676-4 0  9992
2 56896  43.0025  75.5845 0001431 281.2692  78.7990 15.02530945 81275
0 STARLINK-6208
1 56895U 23083V   24336.01429182 -.00004563  00000-0 -32273-3 0  9994
2 56895  43.0071  81.0784 0000987 252.5446 107.5288 15.02559351 81927
0 STARLINK-6144
1 56894U 23083U   24336.01207612  .00000859  00000-0  78661-4 0  9999
2 56894  43.0067  81.0618 0001280 261.6518  98.4180 15.02540730 81127
0 STARLINK-6216
1 56893U 23083T   24336.02093140 -.00019059  00000-0 -13961-2 0  9992
2 56893  43.0075  81.1287 0002392 245.0984 114.9610 15.02628965 81125
0 STARLINK-6219
1 56892U 23083S   24337.00811634 -.00015478  00000-0 -11312-2 0  9995
2 56892  43.0061  75.6320 0000951 248.2701 111.8040 15.02602807 81272
0 STARLINK-6213
1 56891U 23083R   24336.55611827  .00000836  00000-0  76975-4 0  9993
2 56891  43.0054  78.2644 0001753 271.3353  88.7289 15.02527412 82009
0 STARLINK-5528
1 56890U 23083Q   24337.94659149  .00001067  00000-0  94072-4 0  9990
2 56890  43.0028  70.6370 0001248 260.2044  99.8657 15.02538604 81415
0 STARLINK-6169
1 56889U 23083P   24337.95547299 -.00001546  00000-0 -99365-4 0  9995
2 56889  43.0059  70.7026 0001225 269.1224  90.9478 15.02550534 81418
0 STARLINK-6181
1 56888U 23083N   24337.94548320  .00001551  00000-0  12983-3 0  9993
2 56888  43.0022  70.6263 0000963 257.3119 102.7615 15.02537478 81416
0 STARLINK-6180
1 56887U 23083M   24336.96607183 -.00006177  00000-0 -44227-3 0  9993
2 56887  43.0051  76.1784 0001763 269.7877  90.2763 15.02561612 81268
0 STARLINK-5496
1 56886U 23083L   24336.03094941 -.00000229  00000-0 -18682-5 0  9992
2 56886  43.0058  81.2039 0001585 271.4954  88.5707 15.02533963 81123
0 STARLINK-5095
1 56885U 23083K   24336.31128972  .00000238  00000-0  32653-4 0  9995
2 56885  43.0025  79.8674 0001011 252.6239 107.4493 15.02533617 81966
0 STARLINK-5515
1 56884U 23083J   24337.95991655  .00000716  00000-0  68064-4 0  9997
2 56884  43.0064  70.7374 0001155 264.7217  95.3494 15.02537075 81412
0 STARLINK-6171
1 56883U 23083H   24336.97939870  .00000742  00000-0  70015-4 0  9996
2 56883  43.0062  76.2808 0000928 265.5811  94.4925 15.02538533 81260
0 STARLINK-6175
1 56882U 23083G   24337.96657458 -.00000431  00000-0 -16848-4 0  9995
2 56882  43.0069  70.7870 0001392 268.5581  91.5101 15.02542991 81411
0 STARLINK-5853
1 56881U 23083F   24337.97988855 -.00003521  00000-0 -24560-3 0  9995
2 56881  43.0043  70.8923 0001189 264.5004  95.5703 15.02554326 81419
0 STARLINK-6177
1 56880U 23083E   24336.97496141 -.00001449  00000-0 -92159-4 0  9992
2 56880  43.0032  76.2490 0001259 269.8154  90.2544 15.02548013 81261
0 STARLINK-5707
1 56879U 23083D   24337.98211129  .00000512  00000-0  52991-4 0  9991
2 56879  43.0071  70.9061 0001280 270.5726  89.4970 15.02542821 81416
0 STARLINK-6182
1 56878U 23083C   24336.58940732  .00001891  00000-0  15497-3 0  9994
2 56878  43.0020  78.5163 0001089 269.6218  90.4500 15.02539513 81200
0 STARLINK-6209
1 56877U 23083B   24337.97878659  .00001034  00000-0  91624-4 0  9991
2 56877  43.0079  70.8842 0001180 267.8220  92.2488 15.02531833 81412
0 STARLINK-6206
1 56876U 23083A   24336.98938793  .00000915  00000-0  82770-4 0  9995
2 56876  43.0079  76.3578 0001296 268.2764  91.7930 15.02535971 81260
0 STARLINK-30136
1 56844U 23079X   24337.82419769  .00000124  00000-0  24242-4 0  9998
2 56844  43.0001  97.2786 0001589 301.1455  58.9231 15.02539930 83408
0 STARLINK-30137
1 56843U 23079W   24336.40152805  .00001710  00000-0  14167-3 0  9991
2 56843  43.0029 104.6704 0001219 276.4335  83.6368 15.02521741 83194
0 STARLINK-30135
1 56842U 23079V   24337.34553906  .00000665  00000-0  64323-4 0  9999
2 56842  43.0024  99.7168 0001326 276.5516  83.5176 15.02538785 83009
0 STARLINK-30078
1 56841U 23079U   24337.63797847  .00000353  00000-0  41188-4 0  9992
2 56841  43.0018  97.7053 0001200 278.0412  82.0294 15.02547546 83050
0 STARLINK-30073
1 56840U 23079T   24336.60280485  .00006119  00000-0  24353-3 0  9992
2 56840  43.0010  83.7449 0001678 272.1121  87.9538 15.25913655 83122
0 STARLINK-30076
1 56839U 23079S   24336.37823336  .00000085  00000-0  21359-4 0  9992
2 56839  43.0013 104.5802 0001107 259.2819 100.7899 15.02532885 82866
0 STARLINK-30123
1 56838U 23079R   24337.60749066  .00016399  00000-0  11894-2 0  9991
2 56838  43.0019  98.2121 0002026 291.2096  68.8530 15.03685294 83375
0 STARLINK-30133
1 56837U 23079Q   24337.64464360  .00000145  00000-0  25821-4 0  9994
2 56837  43.0060  97.7468 0001339 268.1622  91.9067 15.02533787 83383
0 STARLINK-30142
1 56836U 23079P   24336.38489276 -.00002057  00000-0 -13723-3 0  9999
2 56836  42.9958 104.6478 0000771  34.6669 325.4224 15.02543479 82862
0 STARLINK-30144
1 56835U 23079N   24336.05583107 -.00003716  00000-0 -25999-3 0  9991
2 56835  43.0013 106.4750 0001456 272.4239  87.6436 15.02558895 82819
0 STARLINK-30069
1 56834U 23079M   24337.65463889 -.00006481  00000-0 -46478-3 0  9998
2 56834  43.0020  97.8275 0001145 261.5478  98.5235 15.02562608 83063
0 STARLINK-30131
1 56833U 23079L   24337.28622191 -.00000566  00000-0 -26811-4 0  9997
2 56833  43.0048  73.9625 0001457 274.3597  85.7079 15.02529246 83308
0 STARLINK-30128
1 56832U 23079K   24336.96489537  .00004247  00000-0  32910-3 0  9999
2 56832  43.0036  75.6931 0001242 272.9178  87.1522 15.02552088 83246
0 STARLINK-30152
1 56828U 23079F   24336.06249726  .00000641  00000-0  62508-4 0  9990
2 56828  43.0031 106.5280 0001321 273.5969  86.4722 15.02530000 83143
0 STARLINK-30151
1 56827U 23079E   24336.66412804  .00002801  00000-0  22232-3 0  9993
2 56827  43.0022 103.2907 0001091 298.6781  61.3952 15.02541961 82904
0 STARLINK-30114
1 56826U 23079D   24337.08627839  .00001488  00000-0  12521-3 0  9995
2 56826  43.0031 101.1181 0001440 267.7977  92.2700 15.02538441 82976
0 STARLINK-30084
1 56825U 23079C   24337.40204230  .00001061  00000-0  93565-4 0  9991
2 56825  43.0029  99.3786 0001140 268.2614  91.8098 15.02536181 83348
0 STARLINK-30120
1 56824U 23079B   24337.07298493  .00000465  00000-0  49488-4 0  9999
2 56824  43.0017 101.2090 0001337 272.6948  87.3741 15.02532631 82971
0 STARLINK-30119
1 56823U 23079A   24337.07630959  .00000340  00000-0  40266-4 0  9992
2 56823  43.0053 101.2305 0001632 278.9317  81.1341 15.02534649 82964
0 STARLINK-6028
1 56818U 23078BD  24336.56932528 -.00000291  00000-0 -16567-4 0  9999
2 56818  69.9990  71.9698 0002776 274.2012  85.8830 14.98327761 84004
0 STARLINK-5982
1 56817U 23078BC  24336.78630056  .00002136  00000-0  18675-3 0  9992
2 56817  69.9995  71.5260 0003195 270.9779  89.1014 14.98338052 83609
0 STARLINK-6067
1 56816U 23078BB  24336.47729718 -.00000236  00000-0 -11990-4 0  9996
2 56816  70.0015  52.1856 0002479 267.4551  92.6324 14.98324975 83795
0 STARLINK-6057
1 56815U 23078BA  24337.53737741  .00020014  00000-0  16838-2 0  9996
2 56815  69.9976  69.8405 0002401 271.2983  88.7901 14.98252007 83455
0 STARLINK-6059
1 56814U 23078AZ  24337.97962392  .00003721  00000-0  31931-3 0  9993
2 56814  70.0003  68.4682 0003277 266.5501  93.5283 14.98354274 83787
0 STARLINK-6056
1 56813U 23078AY  24337.23708034 -.00008007  00000-0 -66327-3 0  9993
2 56813  69.9904  70.2941 0002769 279.3882  80.6964 14.98373903 83414
0 STARLINK-6065
1 56812U 23078AX  24336.48998027 -.00000150  00000-0 -47977-5 0  9994
2 56812  69.9990  52.2325 0002505 269.6307  90.4565 14.98337064 83791
